ISS (ZARYA)             
1 25544U 98067A   25244.20115740  .00011389  00000+0  20478-3 0  9992
2 25544  51.6340 290.3139 0003359 300.8027  59.2631 15.50340466526955
CSS (TIANHE)            
1 48274U 21035A   25244.21695689  .00029468  00000+0  37322-3 0  9997
2 48274  41.4648 279.8683 0006407 269.9123  90.0981 15.58810247248019
ISS (NAUKA)             
1 49044U 21066A   25244.20115740  .00011389  00000+0  20478-3 0  9998
2 49044  51.6340 290.3139 0003359 300.8027  59.2631 15.50340466230442
FREGAT DEB              
1 49271U 11037PF  25244.00703011  .00022861  00000+0  39107-1 0  9993
2 49271  51.6325 143.3211 0954475 358.6572   1.1760 12.32797547189259
CSS (WENTIAN)           
1 53239U 22085A   25244.21695689  .00029468  00000+0  37322-3 0  9990
2 53239  41.4648 279.8683 0006407 269.9123  90.0981 15.58810247173844
CSS (MENGTIAN)          
1 54216U 22143A   25244.21695689  .00029468  00000+0  37322-3 0  9991
2 54216  41.4648 279.8683 0006407 269.9123  90.0981 15.58810247158641
PROGRESS-MS 30          
1 63129U 25041B   25244.20115740  .00011389  00000+0  20478-3 0  9995
2 63129  51.6340 290.3139 0003359 300.8027  59.2631 15.50340466 26917
SOYUZ-MS 27             
1 63520U 25072A   25244.20115740  .00011389  00000+0  20478-3 0  9994
2 63520  51.6340 290.3139 0003359 300.8027  59.2631 15.50340466 20208
SHENZHOU-20 (SZ-20)     
1 63632U 25082A   25244.21695689  .00029468  00000+0  37322-3 0  9998
2 63632  41.4648 279.8683 0006407 269.9123  90.0981 15.58810247237179
PROGRESS-MS 31          
1 64751U 25146A   25244.20115740  .00011389  00000+0  20478-3 0  9993
2 64751  51.6340 290.3139 0003359 300.8027  59.2631 15.50340466  6759
TIANZHOU-9              
1 64786U 25149A   25244.21695689  .00029468  00000+0  37322-3 0  9993
2 64786  41.4648 279.8683 0006407 269.9123  90.0981 15.58810247  5117
CREW DRAGON 11          
1 65077U 25166A   25244.20115740  .00011389  00000+0  20478-3 0  9997
2 65077  51.6340 290.3139 0003359 300.8027  59.2631 15.50340466  2140
DRAGON CRS-33           
1 65304U 25186A   25244.20115740  .00011389  00000+0  20478-3 0  9992
2 65304  51.6340 290.3139 0003359 300.8027  59.2631 15.50340466   118
